[{"OBJECT_NAME":"GUOWANG GROUP 20 OBJECT G","OBJECT_ID":"2026-047G","EPOCH":"2026-04-01T04:49:47.046144","MEAN_MOTION":13.88588122,"ECCENTRICITY":8.093e-5,"INCLINATION":50.0114,"RA_OF_ASC_NODE":339.1855,"ARG_OF_PERICENTER":237.977,"MEAN_ANOMALY":122.1049,"EPHEMERIS_TYPE":0,"CLASSIFICATION_TYPE":"U","NORAD_CAT_ID":68135,"ELEMENT_SET_NO":999,"REV_AT_EPOCH":272,"BSTAR":0.00013054804,"MEAN_MOTION_DOT":1.2e-7,"MEAN_MOTION_DDOT":0},{"OBJECT_NAME":"GUOWANG GROUP 20 OBJECT H","OBJECT_ID":"2026-047H","EPOCH":"2026-04-01T04:42:49.036032","MEAN_MOTION":13.88958448,"ECCENTRICITY":0.00011092,"INCLINATION":50.0082,"RA_OF_ASC_NODE":339.1528,"ARG_OF_PERICENTER":307.6282,"MEAN_ANOMALY":52.4515,"EPHEMERIS_TYPE":0,"CLASSIFICATION_TYPE":"U","NORAD_CAT_ID":68136,"ELEMENT_SET_NO":999,"REV_AT_EPOCH":271,"BSTAR":4.8735077e-5,"MEAN_MOTION_DOT":-8.6e-7,"MEAN_MOTION_DDOT":0},{"OBJECT_NAME":"GUOWANG GROUP 20 OBJECT J","OBJECT_ID":"2026-047J","EPOCH":"2026-04-01T06:22:39.180864","MEAN_MOTION":13.89173289,"ECCENTRICITY":5.27e-5,"INCLINATION":50.0088,"RA_OF_ASC_NODE":338.8532,"ARG_OF_PERICENTER":278.6893,"MEAN_ANOMALY":81.3945,"EPHEMERIS_TYPE":0,"CLASSIFICATION_TYPE":"U","NORAD_CAT_ID":68137,"ELEMENT_SET_NO":999,"REV_AT_EPOCH":273,"BSTAR":2.3338273e-5,"MEAN_MOTION_DOT":-1.17e-6,"MEAN_MOTION_DDOT":0},{"OBJECT_NAME":"SHIYAN-30 03","OBJECT_ID":"2026-048A","EPOCH":"2026-04-02T04:44:24.293760","MEAN_MOTION":14.91756442,"ECCENTRICITY":0.00026433,"INCLINATION":35.0016,"RA_OF_ASC_NODE":3.1862,"ARG_OF_PERICENTER":40.1116,"MEAN_ANOMALY":319.9784,"EPHEMERIS_TYPE":0,"CLASSIFICATION_TYPE":"U","NORAD_CAT_ID":68139,"ELEMENT_SET_NO":999,"REV_AT_EPOCH":301,"BSTAR":0.00037301631,"MEAN_MOTION_DOT":3.804e-5,"MEAN_MOTION_DDOT":0},{"OBJECT_NAME":"SHIYAN-30 04","OBJECT_ID":"2026-048B","EPOCH":"2026-04-02T04:45:24.213024","MEAN_MOTION":14.91755039,"ECCENTRICITY":0.00011143,"INCLINATION":34.993,"RA_OF_ASC_NODE":3.185,"ARG_OF_PERICENTER":39.1299,"MEAN_ANOMALY":320.9486,"EPHEMERIS_TYPE":0,"CLASSIFICATION_TYPE":"U","NORAD_CAT_ID":68140,"ELEMENT_SET_NO":999,"REV_AT_EPOCH":301,"BSTAR":0.0003651614,"MEAN_MOTION_DOT":3.723e-5,"MEAN_MOTION_DDOT":0},{"OBJECT_NAME":"STARLINK-36604","OBJECT_ID":"2026-049A","EPOCH":"2026-04-02T06:00:02.999808","MEAN_MOTION":15.75210811,"ECCENTRICITY":0.0001267,"INCLINATION":97.2848,"RA_OF_ASC_NODE":112.6737,"ARG_OF_PERICENTER":103.6231,"MEAN_ANOMALY":57.3723,"EPHEMERIS_TYPE":0,"CLASSIFICATION_TYPE":"U","NORAD_CAT_ID":68142,"ELEMENT_SET_NO":999,"REV_AT_EPOCH":441,"BSTAR":-0.00086502362,"MEAN_MOTION_DOT":-0.00127364,"MEAN_MOTION_DDOT":0},{"OBJECT_NAME":"STARLINK-36995","OBJECT_ID":"2026-049B","EPOCH":"2026-04-02T06:00:02.999808","MEAN_MOTION":15.75206888,"ECCENTRICITY":8.213e-5,"INCLINATION":97.2846,"RA_OF_ASC_NODE":112.6837,"ARG_OF_PERICENTER":86.6688,"MEAN_ANOMALY":100.2463,"EPHEMERIS_TYPE":0,"CLASSIFICATION_TYPE":"U","NORAD_CAT_ID":68143,"ELEMENT_SET_NO":999,"REV_AT_EPOCH":440,"BSTAR":-0.00024364695,"MEAN_MOTION_DOT":-0.00036342,"MEAN_MOTION_DDOT":0},{"OBJECT_NAME":"STARLINK-37020","OBJECT_ID":"2026-049C","EPOCH":"2026-04-02T06:36:03.458592","MEAN_MOTION":15.80903869,"ECCENTRICITY":0.00012782,"INCLINATION":97.2839,"RA_OF_ASC_NODE":112.724,"ARG_OF_PERICENTER":68.7827,"MEAN_ANOMALY":291.3578,"EPHEMERIS_TYPE":0,"CLASSIFICATION_TYPE":"U","NORAD_CAT_ID":68144,"ELEMENT_SET_NO":999,"REV_AT_EPOCH":313,"BSTAR":0.0011687438,"MEAN_MOTION_DOT":0.00230671,"MEAN_MOTION_DDOT":0},{"OBJECT_NAME":"STARLINK-36244","OBJECT_ID":"2026-049D","EPOCH":"2026-04-02T05:32:23.873568","MEAN_MOTION":15.75262822,"ECCENTRICITY":0.00012379,"INCLINATION":97.285,"RA_OF_ASC_NODE":112.6297,"ARG_OF_PERICENTER":98.1117,"MEAN_ANOMALY":262.0289,"EPHEMERIS_TYPE":0,"CLASSIFICATION_TYPE":"U","NORAD_CAT_ID":68145,"ELEMENT_SET_NO":999,"REV_AT_EPOCH":312,"BSTAR":0.0012775233,"MEAN_MOTION_DOT":0.0019546,"MEAN_MOTION_DDOT":0},{"OBJECT_NAME":"STARLINK-36980","OBJECT_ID":"2026-049E","EPOCH":"2026-04-02T06:34:58.675872","MEAN_MOTION":15.80889661,"ECCENTRICITY":9.301e-5,"INCLINATION":97.2839,"RA_OF_ASC_NODE":112.7248,"ARG_OF_PERICENTER":77.0175,"MEAN_ANOMALY":283.1197,"EPHEMERIS_TYPE":0,"CLASSIFICATION_TYPE":"U","NORAD_CAT_ID":68146,"ELEMENT_SET_NO":999,"REV_AT_EPOCH":313,"BSTAR":0.0010375449,"MEAN_MOTION_DOT":0.00203998,"MEAN_MOTION_DDOT":0},{"OBJECT_NAME":"STARLINK-37055","OBJECT_ID":"2026-049F","EPOCH":"2026-04-02T06:37:08.454720","MEAN_MOTION":15.8087303,"ECCENTRICITY":0.00014479,"INCLINATION":97.284,"RA_OF_ASC_NODE":112.7229,"ARG_OF_PERICENTER":129.2658,"MEAN_ANOMALY":230.8738,"EPHEMERIS_TYPE":0,"CLASSIFICATION_TYPE":"U","NORAD_CAT_ID":68147,"ELEMENT_SET_NO":999,"REV_AT_EPOCH":313,"BSTAR":0.000681193,"MEAN_MOTION_DOT":0.00132687,"MEAN_MOTION_DDOT":0},{"OBJECT_NAME":"STARLINK-36981","OBJECT_ID":"2026-049G","EPOCH":"2026-04-02T06:32:48.397632","MEAN_MOTION":15.80943816,"ECCENTRICITY":5.233e-5,"INCLINATION":97.284,"RA_OF_ASC_NODE":112.7258,"ARG_OF_PERICENTER":116.9421,"MEAN_ANOMALY":243.1901,"EPHEMERIS_TYPE":0,"CLASSIFICATION_TYPE":"U","NORAD_CAT_ID":68148,"ELEMENT_SET_NO":999,"REV_AT_EPOCH":313,"BSTAR":0.0014670285,"MEAN_MOTION_DOT":0.00292192,"MEAN_MOTION_DDOT":0},{"OBJECT_NAME":"STARLINK-36992","OBJECT_ID":"2026-049H","EPOCH":"2026-04-02T06:31:43.602816","MEAN_MOTION":15.80924379,"ECCENTRICITY":7.035e-5,"INCLINATION":97.2844,"RA_OF_ASC_NODE":112.7273,"ARG_OF_PERICENTER":110.0914,"MEAN_ANOMALY":250.043,"EPHEMERIS_TYPE":0,"CLASSIFICATION_TYPE":"U","NORAD_CAT_ID":68149,"ELEMENT_SET_NO":999,"REV_AT_EPOCH":313,"BSTAR":0.0013230657,"MEAN_MOTION_DOT":0.00262357,"MEAN_MOTION_DDOT":0},{"OBJECT_NAME":"STARLINK-37060","OBJECT_ID":"2026-049J","EPOCH":"2026-04-02T06:30:38.920320","MEAN_MOTION":15.80868868,"ECCENTRICITY":0.00015038,"INCLINATION":97.2835,"RA_OF_ASC_NODE":112.7286,"ARG_OF_PERICENTER":91.5551,"MEAN_ANOMALY":268.589,"EPHEMERIS_TYPE":0,"CLASSIFICATION_TYPE":"U","NORAD_CAT_ID":68150,"ELEMENT_SET_NO":999,"REV_AT_EPOCH":313,"BSTAR":0.00070006564,"MEAN_MOTION_DOT":0.001364,"MEAN_MOTION_DDOT":0}]
