GUOWANG GROUP 20 OBJECT*
1 68135U 26047G   26091.20123896  .00000012  00000+0  13055-3 0  9990
2 68135  50.0114 339.1855 0000809 237.9770 122.1049 13.88588122  2728
GUOWANG GROUP 20 OBJECT*
1 68136U 26047H   26091.19640088 -.00000086  00000+0  48735-4 0  9992
2 68136  50.0082 339.1528 0001109 307.6282  52.4515 13.88958448  2711
GUOWANG GROUP 20 OBJECT*
1 68137U 26047J   26091.26573126 -.00000117  00000+0  23338-4 0  9996
2 68137  50.0088 338.8532 0000527 278.6893  81.3945 13.89173289  2730
SHIYAN-30 03            
1 68139U 26048A   26092.19750340  .00003804  00000+0  37302-3 0  9997
2 68139  35.0016   3.1862 0002643  40.1116 319.9784 14.91756442  3010
SHIYAN-30 04            
1 68140U 26048B   26092.19819691  .00003723  00000+0  36516-3 0  9990
2 68140  34.9930   3.1850 0001114  39.1299 320.9486 14.91755039  3016
STARLINK-36604          
1 68142U 26049A   26092.25003472 -.00127364  00000+0 -86502-3 0  9992
2 68142  97.2848 112.6737 0001267 103.6231  57.3723 15.75210811  4417
STARLINK-36995          
1 68143U 26049B   26092.25003472 -.00036342  00000+0 -24365-3 0  9997
2 68143  97.2846 112.6837 0000821  86.6688 100.2463 15.75206888  4405
STARLINK-37020          
1 68144U 26049C   26092.27504003  .00230671  00000+0  11687-2 0  9997
2 68144  97.2839 112.7240 0001278  68.7827 291.3578 15.80903869  3137
STARLINK-36244          
1 68145U 26049D   26092.23083187  .00195460  00000+0  12775-2 0  9994
2 68145  97.2850 112.6297 0001237  98.1117 262.0289 15.75262822  3120
STARLINK-36980          
1 68146U 26049E   26092.27429023  .00203998  00000+0  10375-2 0  9992
2 68146  97.2839 112.7248 0000930  77.0175 283.1197 15.80889661  3139
STARLINK-37055          
1 68147U 26049F   26092.27579230  .00132687  00000+0  68119-3 0  9995
2 68147  97.2840 112.7229 0001447 129.2658 230.8738 15.80873030  3134
STARLINK-36981          
1 68148U 26049G   26092.27278238  .00292192  00000+0  14670-2 0  9990
2 68148  97.2840 112.7258 0000523 116.9421 243.1901 15.80943816  3131
STARLINK-36992          
1 68149U 26049H   26092.27203244  .00262357  00000+0  13231-2 0  9998
2 68149  97.2844 112.7273 0000703 110.0914 250.0430 15.80924379  3132
STARLINK-37060          
1 68150U 26049J   26092.27128380  .00136400  00000+0  70007-3 0  9991
2 68150  97.2835 112.7286 0001503  91.5551 268.5890 15.80868868  3131
